KUIPER-00176            
1 65788U 25217AC  25293.86716789  .00028265  00000+0  77284-3 0  9997
2 65788  51.8730 319.8923 0002127  83.5070 276.6159 15.37150366  3916
